1 30776U 07006E   21182.61838231  .00007092  00000-0  16902-3 0  9991
2 30776  35.4355   9.1841 0002326   7.5334 352.5428 15.40917446795290